[Satellite]
VERSION=1.1
NAME=AMOS 2
NICKNAME=AMOS 2
TLE1=1 28132U 03059A   15054.26519675 -.00000061  00000-0  00000+0 0  9996
TLE2=2 28132   0.0930 258.5502 0002892  66.0277 279.6548  1.00269908 40950
